NORAD_CAT_ID,OBJECT_NAME,OBJECT_TYPE,EPOCH,MEAN_MOTION,ECCENTRICITY,INCLINATION,RA_OF_ASC_NODE,ARG_OF_PERICENTER,MEAN_ANOMALY,BSTAR,MEAN_MOTION_DOT,MEAN_MOTION_DDOT,TLE_LINE0,TLE_LINE1,TLE_LINE2,SEMIMAJOR_AXIS,PERIOD,APOGEE,PERIGEE,DECAYED
53545.0,STARLINK-4475,PAYLOAD,2022-11-29 03:19:54,15.0886516,0.0002205,53.2184,35.6433,34.6177,325.4958,-0.00030828,-5.195e-05,0.0,0 STARLINK-4475,1 53545U 22101U   22333.13882623 -.00005195  00000-0 -30828-3 0  9990,2 53545  53.2184  35.6433 0002205  34.6177 325.4958 15.08865160 15662,6917.803000000001,95.436,541.194,538.143,0.0
53545.0,STARLINK-4475,PAYLOAD,2022-11-29 11:16:51,15.08831778,0.0002024,53.2183,34.1565,34.6633,325.4491,0.00012897,1.765e-05,0.0,0 STARLINK-4475,1 53545U 22101U   22333.47003489  .00001765  00000-0  12897-3 0  9995,2 53545  53.2183  34.1565 0002024  34.6633 325.4491 15.08831778 16400,6917.906,95.438,541.1709999999998,538.37,0.0
53545.0,STARLINK-4475,PAYLOAD,2022-11-29 16:03:00,15.08833563,0.0002073,53.2179,33.2651,37.7293,322.3844,7.2066e-05,8.59e-06,0.0,0 STARLINK-4475,1 53545U 22101U   22333.66875578  .00000859  00000-0  72066-4 0  9990,2 53545  53.2179  33.2651 0002073  37.7293 322.3844 15.08833563 15749,6917.9,95.438,541.1990000000002,538.331,0.0
53545.0,STARLINK-4475,PAYLOAD,2022-11-30 11:07:39,15.08827169,0.0002147,53.2185,29.6961,40.5954,319.5198,1.109e-06,-2.71e-06,0.0,0 STARLINK-4475,1 53545U 22101U   22334.46364652 -.00000271  00000-0  11090-5 0  9995,2 53545  53.2185  29.6961 0002147  40.5954 319.5198 15.08827169 16552,6917.92,95.438,541.27,538.299,0.0
53545.0,STARLINK-4475,PAYLOAD,2022-11-30 14:18:25,15.08825933,0.0002126,53.2189,29.1012,42.1093,318.0063,6.059099999999999e-06,-1.92e-06,0.0,0 STARLINK-4475,1 53545U 22101U   22334.59612814 -.00000192  00000-0  60591-5 0  9997,2 53545  53.2189  29.1012 0002126  42.1093 318.0063 15.08825933 15884,6917.9230000000025,95.438,541.259,538.318,0.0
53545.0,STARLINK-4475,PAYLOAD,2022-11-30 20:39:57,15.08837404,0.0002166,53.2182,27.9124,37.7839,322.3305,4.1613e-05,3.74e-06,0.0,0 STARLINK-4475,1 53545U 22101U   22334.86108074  .00000374  00000-0  41613-4 0  9999,2 53545  53.2182  27.9124 0002166  37.7839 322.3305 15.08837404 15927,6917.888000000001,95.438,541.252,538.255,0.0
53545.0,STARLINK-4475,PAYLOAD,2022-12-01 20:30:44,15.08839442,0.0002156,53.2184,23.4521,39.2407,320.8741,5.8496e-05,6.43e-06,0.0,0 STARLINK-4475,1 53545U 22101U   22335.85467996  .00000643  00000-0  58496-4 0  9996,2 53545  53.2184  23.4521 0002156  39.2407 320.8741 15.08839442 16762,6917.882,95.438,541.239,538.256,0.0
53545.0,STARLINK-4475,PAYLOAD,2022-12-02 09:13:49,15.08839164,0.0002203,53.2185,21.0729,40.2097,319.9058,5.142600000000001e-05,5.3e-06,0.0,0 STARLINK-4475,1 53545U 22101U   22336.38460124  .00000530  00000-0  51426-4 0  9992,2 53545  53.2185  21.0729 0002203  40.2097 319.9058 15.08839164 16151,6917.8830000000025,95.438,541.2719999999998,538.224,0.0
53545.0,STARLINK-4475,PAYLOAD,2022-12-02 12:24:35,15.08837877,0.0002189,53.2186,20.4784,40.1412,319.9741,3.7527e-05,3.09e-06,0.0,0 STARLINK-4475,1 53545U 22101U   22336.51708257  .00000309  00000-0  37527-4 0  9999,2 53545  53.2186  20.4784 0002189  40.1412 319.9741 15.08837877 16865,6917.887,95.438,541.266,538.238,0.0
53545.0,STARLINK-4475,PAYLOAD,2022-12-03 12:15:22,15.08839241,0.000211,53.2186,16.0176,39.2183,320.8962,-8.7476e-06,-4.27e-06,0.0,0 STARLINK-4475,1 53545U 22101U   22337.51068273 -.00000427  00000-0 -87476-5 0  9999,2 53545  53.2186  16.0176 0002110  39.2183 320.8962 15.08839241 17010,6917.8830000000025,95.438,541.207,538.288,0.0
53545.0,STARLINK-4475,PAYLOAD,2022-12-03 17:01:32,15.08838822,0.0001909,53.2176,15.1236,45.0164,315.0983,-9.1485e-05,-1.744e-05,0.0,0 STARLINK-4475,1 53545U 22101U   22337.70940516 -.00001744  00000-0 -91485-4 0  9996,2 53545  53.2176  15.1236 0001909  45.0164 315.0983 15.08838822 16354,6917.884,95.438,541.07,538.428,0.0
53545.0,STARLINK-4475,PAYLOAD,2022-12-04 07:20:00,15.08842012,0.0002094,53.2176,12.448,36.8182,323.2953,1.1928e-05,-9.8e-07,0.0,0 STARLINK-4475,1 53545U 22101U   22338.30556023 -.00000098  00000-0  11928-4 0  9993,2 53545  53.2176  12.4480 0002094  36.8182 323.2953 15.08842012 16443,6917.874,95.437,541.188,538.2909999999998,0.0
53545.0,STARLINK-4475,PAYLOAD,2022-12-04 08:55:23,15.08842265,0.0002131,53.2181,12.1514,37.4077,322.7063,2.6567e-05,1.35e-06,0.0,0 STARLINK-4475,1 53545U 22101U   22338.37179942  .00000135  00000-0  26567-4 0  9997,2 53545  53.2181  12.1514 0002131  37.4077 322.7063 15.08842265 17140,6917.873000000001,95.437,541.2130000000002,538.264,0.0
53545.0,STARLINK-4475,PAYLOAD,2022-12-04 13:41:33,15.08838061,0.0002261,53.2178,11.2602,36.1429,323.9715,-6.1264e-06,-3.86e-06,0.0,0 STARLINK-4475,1 53545U 22101U   22338.57052346 -.00000386  00000-0 -61264-5 0  9991,2 53545  53.2178  11.2602 0002261  36.1429 323.9715 15.08838061 17174,6917.886,95.438,541.315,538.187,0.0
53545.0,STARLINK-4475,PAYLOAD,2022-12-05 05:35:24,15.08845052,0.0002341,53.2178,8.2878,33.4282,326.6858,7.8086e-07,-2.76e-06,0.0,0 STARLINK-4475,1 53545U 22101U   22339.23291939 -.00000276  00000-0  78086-6 0  9996,2 53545  53.2178   8.2878 0002341  33.4282 326.6858 15.08845052 17278,6917.865,95.437,541.349,538.11,0.0
53545.0,STARLINK-4475,PAYLOAD,2022-12-05 13:32:20,15.08841705,0.0002616,53.2181,6.803,30.9488,329.1658,-1.088e-06,-3.06e-06,0.0,0 STARLINK-4475,1 53545U 22101U   22339.56412125 -.00000306  00000-0 -10880-5 0  9996,2 53545  53.2181   6.8030 0002616  30.9488 329.1658 15.08841705 16637,6917.875,95.437,541.55,537.93,0.0
53545.0,STARLINK-4475,PAYLOAD,2022-12-06 08:36:57,15.08841282,0.0002219,53.2179,3.2308,36.2282,323.886,1.1107e-05,-1.12e-06,0.0,0 STARLINK-4475,1 53545U 22101U   22340.35899872 -.00000112  00000-0  11107-4 0  9999,2 53545  53.2179   3.2308 0002219  36.2282 323.8860 15.08841282 17449,6917.876,95.437,541.2769999999998,538.206,0.0
53545.0,STARLINK-4475,PAYLOAD,2022-12-06 18:09:17,15.0882701,0.0002235,53.2176,1.4481,37.8782,322.2367,-7.8995e-05,-1.545e-05,0.0,0 STARLINK-4475,1 53545U 22101U   22340.75645272 -.00001545  00000-0 -78995-4 0  9996,2 53545  53.2176   1.4481 0002235  37.8782 322.2367 15.08827010 16816,6917.92,95.438,541.331,538.239,0.0
53545.0,STARLINK-4475,PAYLOAD,2022-12-07 08:27:45,15.08833472,0.0002154,53.2184,358.7703,34.4852,325.628,-0.0001085,-2.014e-05,0.0,0 STARLINK-4475,1 53545U 22101U   22341.35261183 -.00002014  00000-0 -10850-3 0  9995,2 53545  53.2184 358.7703 0002154  34.4852 325.6280 15.08833472 16901,6917.9,95.438,541.255,538.275,0.0
53545.0,STARLINK-4475,PAYLOAD,2022-12-07 18:00:04,15.08832399,0.0002242,53.2191,356.9872,36.8794,323.2352,-9.8346e-05,-1.853e-05,0.0,0 STARLINK-4475,1 53545U 22101U   22341.75005402 -.00001853  00000-0 -98346-4 0  9996,2 53545  53.2191 356.9872 0002242  36.8794 323.2352 15.08832399 17659,6917.904,95.438,541.32,538.2180000000002,0.0
53545.0,STARLINK-4475,PAYLOAD,2022-12-08 01:56:59,15.08841448,0.0002201,53.2188,355.5005,34.9678,325.1458,1.4283e-05,-6.1e-07,0.0,0 STARLINK-4475,1 53545U 22101U   22342.08124541 -.00000061  00000-0  14283-4 0  9996,2 53545  53.2188 355.5005 0002201  34.9678 325.1458 15.08841448 17016,6917.876,95.437,541.264,538.2180000000002,0.0
53545.0,STARLINK-4475,PAYLOAD,2022-12-08 08:18:31,15.08845802,0.0002163,53.2193,354.31199999999984,39.3249,320.79,7.4934e-05,9.05e-06,0.0,0 STARLINK-4475,1 53545U 22101U   22342.34619993  .00000905  00000-0  74934-4 0  9990,2 53545  53.2193 354.3120 0002163  39.3249 320.7900 15.08845802 17748,6917.863,95.437,541.224,538.231,0.0
53545.0,STARLINK-4475,PAYLOAD,2022-12-08 17:50:50,15.08842848,0.0002167,53.2187,352.5282,35.7811,324.3326,8.782700000000001e-05,1.11e-05,0.0,0 STARLINK-4475,1 53545U 22101U   22342.74364016  .00001110  00000-0  87827-4 0  9991,2 53545  53.2187 352.5282 0002167  35.7811 324.3326 15.08842848 17805,6917.871999999999,95.437,541.236,538.238,0.0
53545.0,STARLINK-4475,PAYLOAD,2022-12-09 09:44:41,15.0883413,0.0002048,53.219,349.5544,24.4714,335.6375,0.00018649,2.681e-05,0.0,0 STARLINK-4475,1 53545U 22101U   22343.40604112  .00002681  00000-0  18649-3 0  9998,2 53545  53.2190 349.5544 0002048  24.4714 335.6375 15.08834130 17906,6917.898,95.438,541.18,538.347,0.0
53545.0,STARLINK-4475,PAYLOAD,2022-12-09 17:41:39,15.08808453,0.0002225,53.2189,348.0687,305.0952,54.9831,-7.6469e-05,-1.504e-05,0.0,0 STARLINK-4475,1 53545U 22101U   22343.73725809 -.00001504  00000-0 -76469-4 0  9991,2 53545  53.2189 348.0687 0002225 305.0952  54.9831 15.08808453 17261,6917.977,95.44,541.381,538.303,0.0
53545.0,STARLINK-4475,PAYLOAD,2022-12-10 08:00:08,15.08823751,0.0002354,53.2192,345.3905,29.3677,330.7447,-0.00018587,-3.244e-05,0.0,0 STARLINK-4475,1 53545U 22101U   22344.33343164 -.00003244  00000-0 -18587-3 0  9997,2 53545  53.2192 345.3905 0002354  29.3677 330.7447 15.08823751 18044,6917.93,95.439,541.424,538.1669999999998,0.0
53545.0,STARLINK-4475,PAYLOAD,2022-12-10 23:53:59,15.08831759,0.0002333,53.2191,342.4166,27.8136,332.2981,-8.7477e-05,-1.6800000000000002e-05,0.0,0 STARLINK-4475,1 53545U 22101U   22344.99582711 -.00001680  00000-0 -87477-4 0  9999,2 53545  53.2191 342.4166 0002333  27.8136 332.2981 15.08831759 17451,6917.906,95.438,541.385,538.1569999999998,0.0
53545.0,STARLINK-4475,PAYLOAD,2022-12-11 11:01:40,15.08854507,0.0002514,53.219,340.3349,36.9852,323.1314,-6.7419e-05,-1.362e-05,0.0,0 STARLINK-4475,1 53545U 22101U   22345.45949452 -.00001362  00000-0 -67419-4 0  9991,2 53545  53.2190 340.3349 0002514  36.9852 323.1314 15.08854507 18217,6917.8359999999975,95.437,541.44,537.962,0.0
53545.0,STARLINK-4475,PAYLOAD,2022-12-12 02:55:31,15.08836705,0.0002388,53.2187,337.361,35.3542,324.7609,0.00025994,3.851e-05,0.0,0 STARLINK-4475,1 53545U 22101U   22346.12189552  .00003851  00000-0  25994-3 0  9997,2 53545  53.2187 337.3610 0002388  35.3542 324.7609 15.08836705 17626,6917.89,95.438,541.4069999999998,538.1030000000002,0.0
